<?xml version="1.0" encoding="UTF-8"?>
<ndm xmlns:xsi="http://www.w3.org/2001/XMLSchema-instance" xsi:noNamespaceSchemaLocation="https://sanaregistry.org/r/ndmxml_unqualified/ndmxml-2.0.0-master-2.0.xsd">
<omm id="CCSDS_OMM_VERS" version="2.0">
<header><CREATION_DATE/><ORIGINATOR/></header><body><segment><metadata><OBJECT_NAME>QIANFAN-100</OBJECT_NAME><OBJECT_ID>2025-233K</OBJECT_ID><CENTER_NAME>EARTH</CENTER_NAME><REF_FRAME>TEME</REF_FRAME><TIME_SYSTEM>UTC</TIME_SYSTEM><MEAN_ELEMENT_THEORY>SGP4</MEAN_ELEMENT_THEORY></metadata><data><meanElements><EPOCH>2025-12-25T00:57:26.207424</EPOCH><MEAN_MOTION>13.71854608</MEAN_MOTION><ECCENTRICITY>.00144265</ECCENTRICITY><INCLINATION>88.9975</INCLINATION><RA_OF_ASC_NODE>60.7909</RA_OF_ASC_NODE><ARG_OF_PERICENTER>13.6428</ARG_OF_PERICENTER><MEAN_ANOMALY>346.5122</MEAN_ANOMALY></meanElements><tleParameters><EPHEMERIS_TYPE>0</EPHEMERIS_TYPE><CLASSIFICATION_TYPE>U</CLASSIFICATION_TYPE><NORAD_CAT_ID>66042</NORAD_CAT_ID><ELEMENT_SET_NO>999</ELEMENT_SET_NO><REV_AT_EPOCH>970</REV_AT_EPOCH><BSTAR>-.24367328E+1</BSTAR><MEAN_MOTION_DOT>-.2059597E-1</MEAN_MOTION_DOT><MEAN_MOTION_DDOT>0</MEAN_MOTION_DDOT></tleParameters></data></segment></body></omm>
<omm id="CCSDS_OMM_VERS" version="2.0">
<header><CREATION_DATE/><ORIGINATOR/></header><body><segment><metadata><OBJECT_NAME>QIANFAN-101</OBJECT_NAME><OBJECT_ID>2025-233L</OBJECT_ID><CENTER_NAME>EARTH</CENTER_NAME><REF_FRAME>TEME</REF_FRAME><TIME_SYSTEM>UTC</TIME_SYSTEM><MEAN_ELEMENT_THEORY>SGP4</MEAN_ELEMENT_THEORY></metadata><data><meanElements><EPOCH>2025-12-25T17:05:01.685184</EPOCH><MEAN_MOTION>14.26683287</MEAN_MOTION><ECCENTRICITY>.0014467</ECCENTRICITY><INCLINATION>88.9949</INCLINATION><RA_OF_ASC_NODE>60.5357</RA_OF_ASC_NODE><ARG_OF_PERICENTER>1.9432</ARG_OF_PERICENTER><MEAN_ANOMALY>358.1815</MEAN_ANOMALY></meanElements><tleParameters><EPHEMERIS_TYPE>0</EPHEMERIS_TYPE><CLASSIFICATION_TYPE>U</CLASSIFICATION_TYPE><NORAD_CAT_ID>66043</NORAD_CAT_ID><ELEMENT_SET_NO>999</ELEMENT_SET_NO><REV_AT_EPOCH>989</REV_AT_EPOCH><BSTAR>.94636E-4</BSTAR><MEAN_MOTION_DOT>.243E-5</MEAN_MOTION_DOT><MEAN_MOTION_DDOT>0</MEAN_MOTION_DDOT></tleParameters></data></segment></body></omm>
<omm id="CCSDS_OMM_VERS" version="2.0">
<header><CREATION_DATE/><ORIGINATOR/></header><body><segment><metadata><OBJECT_NAME>QIANFAN-102</OBJECT_NAME><OBJECT_ID>2025-233M</OBJECT_ID><CENTER_NAME>EARTH</CENTER_NAME><REF_FRAME>TEME</REF_FRAME><TIME_SYSTEM>UTC</TIME_SYSTEM><MEAN_ELEMENT_THEORY>SGP4</MEAN_ELEMENT_THEORY></metadata><data><meanElements><EPOCH>2025-12-25T04:25:49.048608</EPOCH><MEAN_MOTION>13.64412269</MEAN_MOTION><ECCENTRICITY>.0015808</ECCENTRICITY><INCLINATION>88.9952</INCLINATION><RA_OF_ASC_NODE>60.8267</RA_OF_ASC_NODE><ARG_OF_PERICENTER>8.6566</ARG_OF_PERICENTER><MEAN_ANOMALY>351.4863</MEAN_ANOMALY></meanElements><tleParameters><EPHEMERIS_TYPE>0</EPHEMERIS_TYPE><CLASSIFICATION_TYPE>U</CLASSIFICATION_TYPE><NORAD_CAT_ID>66044</NORAD_CAT_ID><ELEMENT_SET_NO>999</ELEMENT_SET_NO><REV_AT_EPOCH>969</REV_AT_EPOCH><BSTAR>-.26526E+1</BSTAR><MEAN_MOTION_DOT>-.1990856E-1</MEAN_MOTION_DOT><MEAN_MOTION_DDOT>0</MEAN_MOTION_DDOT></tleParameters></data></segment></body></omm>
<omm id="CCSDS_OMM_VERS" version="2.0">
<header><CREATION_DATE/><ORIGINATOR/></header><body><segment><metadata><OBJECT_NAME>QIANFAN-103</OBJECT_NAME><OBJECT_ID>2025-233N</OBJECT_ID><CENTER_NAME>EARTH</CENTER_NAME><REF_FRAME>TEME</REF_FRAME><TIME_SYSTEM>UTC</TIME_SYSTEM><MEAN_ELEMENT_THEORY>SGP4</MEAN_ELEMENT_THEORY></metadata><data><meanElements><EPOCH>2025-12-24T23:52:46.303104</EPOCH><MEAN_MOTION>13.61450354</MEAN_MOTION><ECCENTRICITY>.00117979</ECCENTRICITY><INCLINATION>88.9949</INCLINATION><RA_OF_ASC_NODE>60.8724</RA_OF_ASC_NODE><ARG_OF_PERICENTER>3.0556</ARG_OF_PERICENTER><MEAN_ANOMALY>357.0671</MEAN_ANOMALY></meanElements><tleParameters><EPHEMERIS_TYPE>0</EPHEMERIS_TYPE><CLASSIFICATION_TYPE>U</CLASSIFICATION_TYPE><NORAD_CAT_ID>66045</NORAD_CAT_ID><ELEMENT_SET_NO>999</ELEMENT_SET_NO><REV_AT_EPOCH>965</REV_AT_EPOCH><BSTAR>-.26876954E+1</BSTAR><MEAN_MOTION_DOT>-.1906822E-1</MEAN_MOTION_DOT><MEAN_MOTION_DDOT>0</MEAN_MOTION_DDOT></tleParameters></data></segment></body></omm>
<omm id="CCSDS_OMM_VERS" version="2.0">
<header><CREATION_DATE/><ORIGINATOR/></header><body><segment><metadata><OBJECT_NAME>QIANFAN-104</OBJECT_NAME><OBJECT_ID>2025-233P</OBJECT_ID><CENTER_NAME>EARTH</CENTER_NAME><REF_FRAME>TEME</REF_FRAME><TIME_SYSTEM>UTC</TIME_SYSTEM><MEAN_ELEMENT_THEORY>SGP4</MEAN_ELEMENT_THEORY></metadata><data><meanElements><EPOCH>2025-12-24T23:28:02.840160</EPOCH><MEAN_MOTION>13.68045735</MEAN_MOTION><ECCENTRICITY>.00153847</ECCENTRICITY><INCLINATION>88.9955</INCLINATION><RA_OF_ASC_NODE>60.8713</RA_OF_ASC_NODE><ARG_OF_PERICENTER>32.5361</ARG_OF_PERICENTER><MEAN_ANOMALY>327.6745</MEAN_ANOMALY></meanElements><tleParameters><EPHEMERIS_TYPE>0</EPHEMERIS_TYPE><CLASSIFICATION_TYPE>U</CLASSIFICATION_TYPE><NORAD_CAT_ID>66046</NORAD_CAT_ID><ELEMENT_SET_NO>999</ELEMENT_SET_NO><REV_AT_EPOCH>966</REV_AT_EPOCH><BSTAR>-.26585153E+1</BSTAR><MEAN_MOTION_DOT>-.2108129E-1</MEAN_MOTION_DOT><MEAN_MOTION_DDOT>0</MEAN_MOTION_DDOT></tleParameters></data></segment></body></omm>
<omm id="CCSDS_OMM_VERS" version="2.0">
<header><CREATION_DATE/><ORIGINATOR/></header><body><segment><metadata><OBJECT_NAME>QIANFAN-105</OBJECT_NAME><OBJECT_ID>2025-233Q</OBJECT_ID><CENTER_NAME>EARTH</CENTER_NAME><REF_FRAME>TEME</REF_FRAME><TIME_SYSTEM>UTC</TIME_SYSTEM><MEAN_ELEMENT_THEORY>SGP4</MEAN_ELEMENT_THEORY></metadata><data><meanElements><EPOCH>2025-12-24T23:24:17.735328</EPOCH><MEAN_MOTION>13.87537819</MEAN_MOTION><ECCENTRICITY>.00145596</ECCENTRICITY><INCLINATION>88.9949</INCLINATION><RA_OF_ASC_NODE>60.7961</RA_OF_ASC_NODE><ARG_OF_PERICENTER>354.4430</ARG_OF_PERICENTER><MEAN_ANOMALY>5.6578</MEAN_ANOMALY></meanElements><tleParameters><EPHEMERIS_TYPE>0</EPHEMERIS_TYPE><CLASSIFICATION_TYPE>U</CLASSIFICATION_TYPE><NORAD_CAT_ID>66047</NORAD_CAT_ID><ELEMENT_SET_NO>999</ELEMENT_SET_NO><REV_AT_EPOCH>969</REV_AT_EPOCH><BSTAR>-.18173552E+1</BSTAR><MEAN_MOTION_DOT>-.200198E-1</MEAN_MOTION_DOT><MEAN_MOTION_DDOT>0</MEAN_MOTION_DDOT></tleParameters></data></segment></body></omm>
<omm id="CCSDS_OMM_VERS" version="2.0">
<header><CREATION_DATE/><ORIGINATOR/></header><body><segment><metadata><OBJECT_NAME>QIANFAN-106</OBJECT_NAME><OBJECT_ID>2025-233R</OBJECT_ID><CENTER_NAME>EARTH</CENTER_NAME><REF_FRAME>TEME</REF_FRAME><TIME_SYSTEM>UTC</TIME_SYSTEM><MEAN_ELEMENT_THEORY>SGP4</MEAN_ELEMENT_THEORY></metadata><data><meanElements><EPOCH>2025-12-24T17:12:34.781472</EPOCH><MEAN_MOTION>13.63383273</MEAN_MOTION><ECCENTRICITY>.00090084</ECCENTRICITY><INCLINATION>88.9973</INCLINATION><RA_OF_ASC_NODE>60.9044</RA_OF_ASC_NODE><ARG_OF_PERICENTER>8.4030</ARG_OF_PERICENTER><MEAN_ANOMALY>351.7277</MEAN_ANOMALY></meanElements><tleParameters><EPHEMERIS_TYPE>0</EPHEMERIS_TYPE><CLASSIFICATION_TYPE>U</CLASSIFICATION_TYPE><NORAD_CAT_ID>66048</NORAD_CAT_ID><ELEMENT_SET_NO>999</ELEMENT_SET_NO><REV_AT_EPOCH>962</REV_AT_EPOCH><BSTAR>-.26484968E+1</BSTAR><MEAN_MOTION_DOT>-.195618E-1</MEAN_MOTION_DOT><MEAN_MOTION_DDOT>0</MEAN_MOTION_DDOT></tleParameters></data></segment></body></omm>
<omm id="CCSDS_OMM_VERS" version="2.0">
<header><CREATION_DATE/><ORIGINATOR/></header><body><segment><metadata><OBJECT_NAME>QIANFAN-107</OBJECT_NAME><OBJECT_ID>2025-233S</OBJECT_ID><CENTER_NAME>EARTH</CENTER_NAME><REF_FRAME>TEME</REF_FRAME><TIME_SYSTEM>UTC</TIME_SYSTEM><MEAN_ELEMENT_THEORY>SGP4</MEAN_ELEMENT_THEORY></metadata><data><meanElements><EPOCH>2025-12-24T15:33:22.312224</EPOCH><MEAN_MOTION>13.64640550</MEAN_MOTION><ECCENTRICITY>.00169361</ECCENTRICITY><INCLINATION>88.9941</INCLINATION><RA_OF_ASC_NODE>60.8912</RA_OF_ASC_NODE><ARG_OF_PERICENTER>18.9255</ARG_OF_PERICENTER><MEAN_ANOMALY>341.2530</MEAN_ANOMALY></meanElements><tleParameters><EPHEMERIS_TYPE>0</EPHEMERIS_TYPE><CLASSIFICATION_TYPE>U</CLASSIFICATION_TYPE><NORAD_CAT_ID>66049</NORAD_CAT_ID><ELEMENT_SET_NO>999</ELEMENT_SET_NO><REV_AT_EPOCH>961</REV_AT_EPOCH><BSTAR>-.28498677E+1</BSTAR><MEAN_MOTION_DOT>-.2136821E-1</MEAN_MOTION_DOT><MEAN_MOTION_DDOT>0</MEAN_MOTION_DDOT></tleParameters></data></segment></body></omm>
<omm id="CCSDS_OMM_VERS" version="2.0">
<header><CREATION_DATE/><ORIGINATOR/></header><body><segment><metadata><OBJECT_NAME>QIANFAN-108</OBJECT_NAME><OBJECT_ID>2025-233T</OBJECT_ID><CENTER_NAME>EARTH</CENTER_NAME><REF_FRAME>TEME</REF_FRAME><TIME_SYSTEM>UTC</TIME_SYSTEM><MEAN_ELEMENT_THEORY>SGP4</MEAN_ELEMENT_THEORY></metadata><data><meanElements><EPOCH>2025-12-24T22:23:42.605664</EPOCH><MEAN_MOTION>13.63873308</MEAN_MOTION><ECCENTRICITY>.00156627</ECCENTRICITY><INCLINATION>88.9943</INCLINATION><RA_OF_ASC_NODE>60.8628</RA_OF_ASC_NODE><ARG_OF_PERICENTER>11.2283</ARG_OF_PERICENTER><MEAN_ANOMALY>348.9222</MEAN_ANOMALY></meanElements><tleParameters><EPHEMERIS_TYPE>0</EPHEMERIS_TYPE><CLASSIFICATION_TYPE>U</CLASSIFICATION_TYPE><NORAD_CAT_ID>66050</NORAD_CAT_ID><ELEMENT_SET_NO>999</ELEMENT_SET_NO><REV_AT_EPOCH>965</REV_AT_EPOCH><BSTAR>-.26023458E+1</BSTAR><MEAN_MOTION_DOT>-.1919294E-1</MEAN_MOTION_DOT><MEAN_MOTION_DDOT>0</MEAN_MOTION_DDOT></tleParameters></data></segment></body></omm>
</ndm>
